IRIDIUM 7               
1 24793U 97020B   24223.60703119  .00001123  00000+0  38507-3 0  9995
2 24793  86.3974 307.0443 0002439  91.2555 268.8921 14.35336571427333
IRIDIUM 5               
1 24795U 97020D   24223.54544909  .00008001  00000+0  74905-3 0  9994
2 24795  86.3900 226.2463 0121116 167.8942 192.5243 14.88442187439154
IRIDIUM 4               
1 24796U 97020E   24223.16075454  .00001042  00000+0  35036-3 0  9997
2 24796  86.3967 304.3131 0002333  96.2349 263.9113 14.36264054427810
IRIDIUM 914             
1 24836U 97030A   24223.32449905  .00001278  00000+0  39865-3 0  9992
2 24836  86.3962 313.7706 0003196 125.5873 234.5624 14.40139885562378
IRIDIUM 16              
1 24841U 97030F   24223.37980280  .00001408  00000+0  45912-3 0  9994
2 24841  86.4079 335.8616 0003112  49.5951 310.5518 14.38028795422320
IRIDIUM 911             
1 24842U 97030G   24223.39767180  .00001804  00000+0  49314-3 0  9999
2 24842  86.4502 334.9324 0016008  58.9770 301.3002 14.46708533430137
IRIDIUM 17              
1 24870U 97034B   24223.45279206  .00001436  00000+0  47708-3 0  9994
2 24870  86.3992   5.3966 0001316  41.4709 318.6588 14.37117640418944
IRIDIUM 920             
1 24871U 97034C   24223.39100280  .00001301  00000+0  40003-3 0  9995
2 24871  86.4020 345.3849 0012612  36.4708 323.7348 14.40836360421811
